[{"OBJECT_NAME":"TIANQI-18","OBJECT_ID":"2025-105C","EPOCH":"2026-03-09T22:12:26.656128","MEAN_MOTION":13.99097587,"ECCENTRICITY":0.00119546,"INCLINATION":44.984,"RA_OF_ASC_NODE":103.8187,"ARG_OF_PERICENTER":278.1183,"MEAN_ANOMALY":81.8293,"EPHEMERIS_TYPE":0,"CLASSIFICATION_TYPE":"U","NORAD_CAT_ID":64060,"ELEMENT_SET_NO":999,"REV_AT_EPOCH":4129,"BSTAR":0.00015710679,"MEAN_MOTION_DOT":1.01e-6,"MEAN_MOTION_DDOT":0},{"OBJECT_NAME":"CZ-6A DEB","OBJECT_ID":"2022-151MK","EPOCH":"2026-03-09T22:50:48.941376","MEAN_MOTION":14.07910001,"ECCENTRICITY":0.00866563,"INCLINATION":98.8585,"RA_OF_ASC_NODE":58.7477,"ARG_OF_PERICENTER":304.7106,"MEAN_ANOMALY":54.5922,"EPHEMERIS_TYPE":0,"CLASSIFICATION_TYPE":"U","NORAD_CAT_ID":54583,"ELEMENT_SET_NO":999,"REV_AT_EPOCH":16956,"BSTAR":0.0018368387,"MEAN_MOTION_DOT":3.184e-5,"MEAN_MOTION_DDOT":0}]
